[{"OBJECT_NAME":"SKYKRAFT-1C","OBJECT_ID":"2023-001BE","EPOCH":"2026-03-09T17:01:49.738944","MEAN_MOTION":15.24327539,"ECCENTRICITY":0.00119736,"INCLINATION":97.3326,"RA_OF_ASC_NODE":124.5476,"ARG_OF_PERICENTER":132.0782,"MEAN_ANOMALY":228.1477,"EPHEMERIS_TYPE":0,"CLASSIFICATION_TYPE":"U","NORAD_CAT_ID":55061,"ELEMENT_SET_NO":999,"REV_AT_EPOCH":17632,"BSTAR":0.00018809338,"MEAN_MOTION_DOT":4.538e-5,"MEAN_MOTION_DDOT":0},{"OBJECT_NAME":"HORUS 1","OBJECT_ID":"2023-025A","EPOCH":"2026-03-09T23:16:57.631008","MEAN_MOTION":15.23575294,"ECCENTRICITY":0.00030668,"INCLINATION":97.3529,"RA_OF_ASC_NODE":145.6167,"ARG_OF_PERICENTER":124.3269,"MEAN_ANOMALY":235.8259,"EPHEMERIS_TYPE":0,"CLASSIFICATION_TYPE":"U","NORAD_CAT_ID":55690,"ELEMENT_SET_NO":999,"REV_AT_EPOCH":16894,"BSTAR":0.00035630129,"MEAN_MOTION_DOT":8.456e-5,"MEAN_MOTION_DDOT":0}]
